{
  "norad_id": 55268,
  "name": "NAVSTAR 82 (USA 343)",
  "history": [
    {
      "epoch": "2026-03-28T04:24:38.672352Z",
      "apogee_km": 20197.92890808398,
      "perigee_km": 20169.345782710898,
      "latitude_deg": -4.3709016611938,
      "longitude_deg": -103.10427775476099,
      "height_km": 20172.01352481426,
      "semi_major_axis_km": 26561.774345397436,
      "eccentricity": 0.00053805,
      "inclination_deg": 55.1104,
      "raan_deg": 151.7031,
      "arg_perigee_deg": 326.6502,
      "mean_anomaly_deg": 28.0595,
      "mean_motion_rev_day": 2.00547447
    },
    {
      "epoch": "2026-04-07T05:37:16.003200Z",
      "apogee_km": 20194.687732476224,
      "perigee_km": 20167.46984813432,
      "latitude_deg": 40.494530040580926,
      "longitude_deg": -92.03693616171759,
      "height_km": 20186.662207116147,
      "semi_major_axis_km": 26559.21579030527,
      "eccentricity": 0.0005124,
      "inclination_deg": 55.1117,
      "raan_deg": 151.3081,
      "arg_perigee_deg": 315.9614,
      "mean_anomaly_deg": 96.3175,
      "mean_motion_rev_day": 2.00576427
    },
    {
      "epoch": "2026-04-08T04:10:26.422752Z",
      "apogee_km": 20194.687809501644,
      "perigee_km": 20167.479481503564,
      "latitude_deg": 8.867101688879051,
      "longitude_deg": -101.53592910812615,
      "height_km": 20172.95539599307,
      "semi_major_axis_km": 26559.220645502603,
      "eccentricity": 0.00051222,
      "inclination_deg": 55.1118,
      "raan_deg": 151.2712,
      "arg_perigee_deg": 315.6217,
      "mean_anomaly_deg": 55.2164,
      "mean_motion_rev_day": 2.00576372
    },
    {
      "epoch": "2026-04-10T03:41:38.559264Z",
      "apogee_km": 20194.759312667135,
      "perigee_km": 20167.433048832125,
      "latitude_deg": 0.4637223514527445,
      "longitude_deg": -102.2783679006345,
      "height_km": 20171.710347334643,
      "semi_major_axis_km": 26559.23318074963,
      "eccentricity": 0.00051444,
      "inclination_deg": 55.1119,
      "raan_deg": 151.1934,
      "arg_perigee_deg": 315.3821,
      "mean_anomaly_deg": 45.2121,
      "mean_motion_rev_day": 2.0057623
    },
    {
      "epoch": "2026-04-11T03:28:41.850048Z",
      "apogee_km": 20194.77381625815,
      "perigee_km": 20167.431610158197,
      "latitude_deg": -3.1489357148994888,
      "longitude_deg": -102.57516395712398,
      "height_km": 20171.553229940328,
      "semi_major_axis_km": 26559.23971320817,
      "eccentricity": 0.00051474,
      "inclination_deg": 55.112,
      "raan_deg": 151.1545,
      "arg_perigee_deg": 315.2219,
      "mean_anomaly_deg": 40.9791,
      "mean_motion_rev_day": 2.00576156
    },
    {
      "epoch": "2026-04-13T03:23:38.662080Z",
      "apogee_km": 20194.867616780233,
      "perigee_km": 20167.373473369575,
      "latitude_deg": -1.7891649876184834,
      "longitude_deg": -102.40861839368628,
      "height_km": 20171.60213900278,
      "semi_major_axis_km": 26559.257545074903,
      "eccentricity": 0.0005176,
      "inclination_deg": 55.1121,
      "raan_deg": 151.076,
      "arg_perigee_deg": 314.9642,
      "mean_anomaly_deg": 42.8982,
      "mean_motion_rev_day": 2.00575954
    },
    {
      "epoch": "2026-04-17T16:28:40.039392Z",
      "apogee_km": 20195.48183517008,
      "perigee_km": 20166.84241173928,
      "latitude_deg": 31.769811360128386,
      "longitude_deg": 83.4695263883296,
      "height_km": 20182.104523043003,
      "semi_major_axis_km": 26559.29912345468,
      "eccentricity": 0.00053916,
      "inclination_deg": 55.1126,
      "raan_deg": 150.8971,
      "arg_perigee_deg": 314.2944,
      "mean_anomaly_deg": 85.6072,
      "mean_motion_rev_day": 2.00575483
    },
    {
      "epoch": "2026-04-19T02:22:26.054688Z",
      "apogee_km": 20195.238623529352,
      "perigee_km": 20167.100100810887,
      "latitude_deg": -16.56444197479804,
      "longitude_deg": -103.92542201607972,
      "height_km": 20172.497155262034,
      "semi_major_axis_km": 26559.30636217012,
      "eccentricity": 0.00052973,
      "inclination_deg": 55.113,
      "raan_deg": 150.8415,
      "arg_perigee_deg": 314.9427,
      "mean_anomaly_deg": 24.8034,
      "mean_motion_rev_day": 2.00575401
    },
    {
      "epoch": "2026-04-21T02:39:38.832768Z",
      "apogee_km": 20195.730638449764,
      "perigee_km": 20166.642867075738,
      "latitude_deg": -6.12630757635477,
      "longitude_deg": -102.62405104533109,
      "height_km": 20171.01738180941,
      "semi_major_axis_km": 26559.32375276275,
      "eccentricity": 0.0005476,
      "inclination_deg": 55.1135,
      "raan_deg": 150.7622,
      "arg_perigee_deg": 314.8282,
      "mean_anomaly_deg": 37.7383,
      "mean_motion_rev_day": 2.00575204
    },
    {
      "epoch": "2026-04-21T02:39:38.833632Z",
      "apogee_km": 20195.72984167005,
      "perigee_km": 20166.643663855448,
      "latitude_deg": -6.126309298229923,
      "longitude_deg": -102.62405587188469,
      "height_km": 20171.018011578395,
      "semi_major_axis_km": 26559.32375276275,
      "eccentricity": 0.00054757,
      "inclination_deg": 55.1135,
      "raan_deg": 150.7622,
      "arg_perigee_deg": 314.8282,
      "mean_anomaly_deg": 37.7383,
      "mean_motion_rev_day": 2.00575204
    },
    {
      "epoch": "2026-04-24T02:49:50.651904Z",
      "apogee_km": 20195.982025161353,
      "perigee_km": 20166.427320934417,
      "latitude_deg": 3.243530232220406,
      "longitude_deg": -101.70625120762614,
      "height_km": 20171.459249819603,
      "semi_major_axis_km": 26559.341673047882,
      "eccentricity": 0.00055639,
      "inclination_deg": 55.114,
      "raan_deg": 150.6438,
      "arg_perigee_deg": 314.9389,
      "mean_anomaly_deg": 49.0235,
      "mean_motion_rev_day": 2.00575001
    },
    {
      "epoch": "2026-04-26T03:49:32.691360Z",
      "apogee_km": 20196.123397546184,
      "perigee_km": 20166.29618872362,
      "latitude_deg": 30.43754384344518,
      "longitude_deg": -96.83200712396636,
      "height_km": 20181.11737630262,
      "semi_major_axis_km": 26559.3467931349,
      "eccentricity": 0.00056152,
      "inclination_deg": 55.1147,
      "raan_deg": 150.5635,
      "arg_perigee_deg": 315.2799,
      "mean_anomaly_deg": 82.808,
      "mean_motion_rev_day": 2.00574943
    },
    {
      "epoch": "2026-04-27T20:27:38.645568Z",
      "apogee_km": 20196.11612900555,
      "perigee_km": 20166.311225675436,
      "latitude_deg": -0.5078225095975395,
      "longitude_deg": 168.1082488197421,
      "height_km": 20192.04607614079,
      "semi_major_axis_km": 26559.35067734049,
      "eccentricity": 0.0005611,
      "inclination_deg": 55.1151,
      "raan_deg": 150.497,
      "arg_perigee_deg": 315.3355,
      "mean_anomaly_deg": 225.3468,
      "mean_motion_rev_day": 2.00574899
    },
    {
      "epoch": "2026-04-28T20:36:38.666304Z",
      "apogee_km": 20196.186861533824,
      "perigee_km": 20166.243847689235,
      "latitude_deg": -5.924263544722606,
      "longitude_deg": 168.6172667238728,
      "height_km": 20191.698091001832,
      "semi_major_axis_km": 26559.35235461153,
      "eccentricity": 0.0005637,
      "inclination_deg": 55.1151,
      "raan_deg": 150.4575,
      "arg_perigee_deg": 315.2049,
      "mean_anomaly_deg": 232.0844,
      "mean_motion_rev_day": 2.0057488
    },
    {
      "epoch": "2026-04-29T08:16:23.867616Z",
      "apogee_km": 20196.174907377004,
      "perigee_km": 20166.25792050447,
      "latitude_deg": 1.5452898343427768,
      "longitude_deg": -12.040741791178187,
      "height_km": 20192.207304282263,
      "semi_major_axis_km": 26559.35341394074,
      "eccentricity": 0.00056321,
      "inclination_deg": 55.1151,
      "raan_deg": 150.4384,
      "arg_perigee_deg": 314.8908,
      "mean_anomaly_deg": 223.2925,
      "mean_motion_rev_day": 2.00574868
    },
    {
      "epoch": "2026-04-30T08:13:52.003200Z",
      "apogee_km": 20196.201545880875,
      "perigee_km": 20166.23940352651,
      "latitude_deg": 0.8683802790514363,
      "longitude_deg": -11.960240821522595,
      "height_km": 20192.14620525291,
      "semi_major_axis_km": 26559.35747470369,
      "eccentricity": 0.00056406,
      "inclination_deg": 55.1153,
      "raan_deg": 150.3992,
      "arg_perigee_deg": 314.8309,
      "mean_anomaly_deg": 224.1764,
      "mean_motion_rev_day": 2.00574822
    }
  ]
}